*******************************************************************************
JPL/HORIZONS               3753 Cruithne (1986 TO)         2023-May-05 15:04:40
Rec #:    3753 (+COV) Soln.date: 2023-Mar-01_06:10:23   # obs: 1216 (1973-2022)
 
IAU76/J2000 helio. ecliptic osc. elements (au, days, deg., period=Julian yrs):
 
  EPOCH=  2456900.5 ! 2014-Aug-31.00 (TDB)         Residual RMS= .35645
   EC= .5148627256994029   QR= .4840184658385133   TP= 2457012.169995938
   OM= 126.2462939076055   W=  43.80978547847901   IN= 19.80747881540994
   A= .9976938311662474    MA= 249.5553600271496   ADIST= 1.511369196493981
   PER= .99656             N= .9890269900000001    ANGMOM= .014729875
   DAN= .53459             DDN= 1.16671            L= 168.3137556
   B= 13.566979            MOID= .0710535          TP= 2014-Dec-20.6699959380
 
Asteroid physical parameters (km, seconds, rotational period in hours):
   GM= n.a.                RAD= 1.0355             ROTPER= 27.3099
   H= 15.5                 G= .150                 B-V= n.a.
                           ALBEDO= .365            STYP= Q
 
ASTEROID comments: 
1: soln ref.= JPL#240, OCC=0
2: source=ORB
*******************************************************************************

  

*******************************************************************************
Ephemeris / WWW_USER Fri May  5 15:04:40 2023 Pasadena, USA      / Horizons
*******************************************************************************
Target body name: 3753 Cruithne (1986 TO)         {source: JPL#240}
Center body name: Earth (399)                     {source: DE441}
Center-site name: BODY CENTER
*******************************************************************************
Start time      : A.D. 2023-May-16 09:03:00.0000 TDB
Stop  time      : A.D. 2024-Jun-11 17:20:05.0000 TDB
Step-size       : 1440 minutes
*******************************************************************************
Center geodetic : 0.0, 0.0, 0.0                   {E-lon(deg),Lat(deg),Alt(km)}
Center cylindric: 0.0, 0.0, 0.0                   {E-lon(deg),Dxy(km),Dz(km)}
Center radii    : 6378.137, 6378.137, 6356.752 km {Equator_a, b, pole_c}
Small perturbers: Yes                             {source: SB441-N16}
Output units    : KM-S
Calendar mode   : Mixed Julian/Gregorian
Output type     : GEOMETRIC cartesian states
Output format   : 1 (position only)
EOP file        : eop.230504.p230727
EOP coverage    : DATA-BASED 1962-JAN-20 TO 2023-MAY-04. PREDICTS-> 2023-JUL-26
Reference frame : Ecliptic of J2000.0
*******************************************************************************
Initial IAU76/J2000 heliocentric ecliptic osculating elements (au, days, deg.):
  EPOCH=  2456900.5 ! 2014-Aug-31.00 (TDB)         Residual RMS= .35645        
   EC= .5148627256994029   QR= .4840184658385133   TP= 2457012.169995938       
   OM= 126.2462939076055   W=  43.80978547847901   IN= 19.80747881540994       
  Equivalent ICRF heliocentric cartesian coordinates (au, au/d):
   X= 1.215347990905840E+00  Y= 5.153520927692684E-01  Z=-2.481738801145509E-01
  VX=-7.990656955364673E-03 VY= 8.039467650712289E-03 VZ= 3.939584837771865E-03
Asteroid physical parameters (km, seconds, rotational period in hours):        
   GM= n.a.                RAD= 1.0355             ROTPER= 27.3099             
   H= 15.5                 G= .150                 B-V= n.a.                   
                           ALBEDO= .365            STYP= Q                     
*******************************************************************************
            JDTDB,            Calendar Date (TDB),                      X,                      Y,                      Z,
**************************************************************************************************************************
$$SOE
2460180.877083333, A.D. 2023-Aug-24 09:03:00.0000,  4.460956965698604E+07,  1.359130137112398E+08, -6.440086746921977E+07,
2460181.877083333, A.D. 2023-Aug-25 09:03:00.0000,  4.210600852485523E+07,  1.349703371178514E+08, -6.429886978017738E+07,
2460182.877083333, A.D. 2023-Aug-26 09:03:00.0000,  3.961790951495238E+07,  1.339991265444523E+08, -6.418851427580978E+07,
2460183.877083333, A.D. 2023-Aug-27 09:03:00.0000,  3.714546798393181E+07,  1.329997656199067E+08, -6.406970995497338E+07,
2460184.877083333, A.D. 2023-Aug-28 09:03:00.0000,  3.468886134165326E+07,  1.319726226017317E+08, -6.394236515439129E+07,
2460185.877083333, A.D. 2023-Aug-29 09:03:00.0000,  3.224825365255687E+07,  1.309180468344712E+08, -6.380638795208278E+07,
2460186.877083333, A.D. 2023-Aug-30 09:03:00.0000,  2.982380211590040E+07,  1.298363670655294E+08, -6.366168649143948E+07,
2460187.877083333, A.D. 2023-Aug-31 09:03:00.0000,  2.741566436038983E+07,  1.287278928138712E+08, -6.350816908660784E+07,
2460188.877083333, A.D. 2023-Sep-01 09:03:00.0000,  2.502400468184930E+07,  1.275929191489651E+08, -6.334574400605968E+07,
2460189.877083333, A.D. 2023-Sep-02 09:03:00.0000,  2.264899735166121E+07,  1.264317338892528E+08, -6.317431894071086E+07,
2460190.877083333, A.D. 2023-Sep-03 09:03:00.0000,  2.029082615368089E+07,  1.252446252039649E+08, -6.299380028696274E+07,
2460191.877083333, A.D. 2023-Sep-04 09:03:00.0000,  1.794968075915575E+07,  1.240318876142524E+08, -6.280409243148222E+07,
2460192.877083333, A.D. 2023-Sep-05 09:03:00.0000,  1.562575149052802E+07,  1.227938253387760E+08, -6.260509718472965E+07,
2460193.877083333, A.D. 2023-Sep-06 09:03:00.0000,  1.331922404657170E+07,  1.215307530688783E+08, -6.239671341858884E+07,
2460194.877083333, A.D. 2023-Sep-07 09:03:00.0000,  1.103027516518083E+07,  1.202429949493079E+08, -6.217883688382582E+07,
2460195.877083333, A.D. 2023-Sep-08 09:03:00.0000,  8.759069518116504E+06,  1.189308826599759E+08, -6.195136014642884E+07,
2460196.877083333, A.D. 2023-Sep-09 09:03:00.0000,  6.505757681259811E+06,  1.175947532707241E+08, -6.171417258219009E+07,
2460197.877083333, A.D. 2023-Sep-10 09:03:00.0000,  4.270474844876051E+06,  1.162349472343925E+08, -6.146716038668898E+07,
2460198.877083333, A.D. 2023-Sep-11 09:03:00.0000,  2.053339929174125E+06,  1.148518066352073E+08, -6.121020657801654E+07,
2460199.877083333, A.D. 2023-Sep-12 09:03:00.0000, -1.455451474187076E+05,  1.134456736546180E+08, -6.094319098540565E+07,
2460200.877083333, A.D. 2023-Sep-13 09:03:00.0000, -2.326096197432220E+06,  1.120168891410052E+08, -6.066599022713236E+07,
2460201.877083333, A.D. 2023-Sep-14 09:03:00.0000, -4.488247546806544E+06,  1.105657911496009E+08, -6.037847768640621E+07,
2460202.877083333, A.D. 2023-Sep-15 09:03:00.0000, -6.631952851960838E+06,  1.090927133357013E+08, -6.008052349552838E+07,
2460203.877083333, A.D. 2023-Sep-16 09:03:00.0000, -8.757185884250700E+06,  1.075979831234023E+08, -5.977199453729102E+07,
2460204.877083333, A.D. 2023-Sep-17 09:03:00.0000, -1.086394119512063E+07,  1.060819196195463E+08, -5.945275446945475E+07,
2460205.877083333, A.D. 2023-Sep-18 09:03:00.0000, -1.295223458274230E+07,  1.045448312828974E+08, -5.912266377452869E+07,
2460206.877083333, A.D. 2023-Sep-19 09:03:00.0000, -1.502210330477926E+07,  1.029870133779196E+08, -5.878157983455330E+07,
2460207.877083333, A.D. 2023-Sep-20 09:03:00.0000, -1.707360600332932E+07,  1.014087452346839E+08, -5.842935703040034E+07,
2460208.877083333, A.D. 2023-Sep-21 09:03:00.0000, -1.910682230484560E+07,  9.981028730843420E+07, -5.806584686754576E+07,
2460209.877083333, A.D. 2023-Sep-22 09:03:00.0000, -2.112185201289698E+07,  9.819187800715026E+07, -5.769089813408486E+07,
2460210.877083333, A.D. 2023-Sep-23 09:03:00.0000, -2.311881372361967E+07,  9.655373027013358E+07, -5.730435709892580E+07,
2460211.877083333, A.D. 2023-Sep-24 09:03:00.0000, -2.509784258958244E+07,  9.489602797876926E+07, -5.690606775392827E+07,
2460212.877083333, A.D. 2023-Sep-25 09:03:00.0000, -2.705908690577741E+07,  9.321892249246845E+07, -5.649587208808348E+07,
2460213.877083333, A.D. 2023-Sep-26 09:03:00.0000, -2.900270330091743E+07,  9.152252990444596E+07, -5.607361035242460E+07,
2460214.877083333, A.D. 2023-Sep-27 09:03:00.0000, -3.092885069287187E+07,  8.980692987194082E+07, -5.563912123815116E+07,
2460215.877083333, A.D. 2023-Sep-28 09:03:00.0000, -3.283768379094993E+07,  8.807216684760439E+07, -5.519224186871289E+07,
2460216.877083333, A.D. 2023-Sep-29 09:03:00.0000, -3.472934753086096E+07,  8.631825399928528E+07, -5.473280752843800E+07,
2460217.877083333, A.D. 2023-Sep-30 09:03:00.0000, -3.660397394574267E+07,  8.454517912785998E+07, -5.426065112755040E+07,
2460218.877083333, A.D. 2023-Oct-01 09:03:00.0000, -3.846168231446083E+07,  8.275291098682648E+07, -5.377560250487448E+07,
2460219.877083333, A.D. 2023-Oct-02 09:03:00.0000, -4.030258225362663E+07,  8.094140419908865E+07, -5.327748773252306E+07,
2460220.877083333, A.D. 2023-Oct-03 09:03:00.0000, -4.212677844281320E+07,  7.911060161731037E+07, -5.276612857039928E+07,
2460221.877083333, A.D. 2023-Oct-04 09:03:00.0000, -4.393437543092085E+07,  7.726043401520397E+07, -5.224134214082321E+07,
2460222.877083333, A.D. 2023-Oct-05 09:03:00.0000, -4.572548141410007E+07,  7.539081779158771E+07, -5.170294081020112E+07,
2460223.877083333, A.D. 2023-Oct-06 09:03:00.0000, -4.750021055908021E+07,  7.350165162762205E+07, -5.115073221672003E+07,
2460224.877083333, A.D. 2023-Oct-07 09:03:00.0000, -4.925868398009479E+07,  7.159281287648736E+07, -5.058451937597550E+07,
2460225.877083333, A.D. 2023-Oct-08 09:03:00.0000, -5.100102973307702E+07,  6.966415414446841E+07, -5.000410081348183E+07,
2460226.877083333, A.D. 2023-Oct-09 09:03:00.0000, -5.272738222655784E+07,  6.771550023016031E+07, -4.940927069624770E+07,
2460227.877083333, A.D. 2023-Oct-10 09:03:00.0000, -5.443788137195626E+07,  6.574664539108824E+07, -4.879981895530885E+07,
2460228.877083333, A.D. 2023-Oct-11 09:03:00.0000, -5.613267168377028E+07,  6.375735079823413E+07, -4.817553140481935E+07,
2460229.877083333, A.D. 2023-Oct-12 09:03:00.0000, -5.781190142789938E+07,  6.174734199184708E+07, -4.753618987190555E+07,
